NORAD_CAT_ID,OBJECT_NAME,OBJECT_TYPE,EPOCH,MEAN_MOTION,ECCENTRICITY,INCLINATION,RA_OF_ASC_NODE,ARG_OF_PERICENTER,MEAN_ANOMALY,BSTAR,MEAN_MOTION_DOT,MEAN_MOTION_DDOT,TLE_LINE0,TLE_LINE1,TLE_LINE2,SEMIMAJOR_AXIS,PERIOD,APOGEE,PERIGEE,DECAYED
52464.0,STARLINK-3904,PAYLOAD,2022-08-08 22:00:00,15.08877802,0.0002473,53.2149,174.429,63.5442,21.712,-0.0024149,-0.00038558,0.0,0 STARLINK-3904,1 52464U 22049P   22220.91667824 -.00038558  00000-0 -24149-2 0  9992,2 52464  53.2149 174.4290 0002473  63.5442  21.7120 15.08877802  1307,6917.765,95.435,541.341,537.919,0.0
52464.0,STARLINK-3904,PAYLOAD,2022-08-09 06:00:00,15.08836445,0.0002522,53.2149,172.9342,58.0427,38.8361,6.123e-05,6.86e-06,0.0,0 STARLINK-3904,1 52464U 22049P   22221.25001157  .00000686  00000-0  61230-4 0  9994,2 52464  53.2149 172.9342 0002522  58.0427  38.8361 15.08836445 14875,6917.891,95.438,541.501,538.012,0.0
52464.0,STARLINK-3904,PAYLOAD,2022-08-09 14:00:01,15.0882906,0.0002334999999999,53.2148,171.4364,60.5433,47.9313,-0.0010888,-0.0001757,0.0,0 STARLINK-3904,1 52464U 22049P   22221.58334491 -.00017570  00000-0 -10888-2 0  9993,2 52464  53.2148 171.4364 0002335  60.5433  47.9313 15.08829060  1306,6917.9140000000025,95.438,541.394,538.163,0.0
52464.0,STARLINK-3904,PAYLOAD,2022-08-09 22:00:00,15.08834434,0.0002266,53.215,169.9399,63.1774,56.8697,-0.002221,-0.00035458,0.0,0 STARLINK-3904,1 52464U 22049P   22221.91667824 -.00035458  00000-0 -22210-2 0  9996,2 52464  53.2150 169.9399 0002266  63.1774  56.8697 15.08834434  1304,6917.897,95.438,541.33,538.195,0.0
52464.0,STARLINK-3904,PAYLOAD,2022-08-10 06:00:00,15.08790249,0.0002353,53.2149,168.4452,57.6987,73.9267,0.0024990999999999,0.00039656,0.0,0 STARLINK-3904,1 52464U 22049P   22222.25001157  .00039656  00000-0  24991-2 0  9995,2 52464  53.2149 168.4452 0002353  57.6987  73.9267 15.08790249 15029,6918.031999999997,95.441,541.525,538.27,0.0
52464.0,STARLINK-3904,PAYLOAD,2022-08-10 14:00:01,15.08816519,0.0002244,53.2148,166.9475,61.6268,81.5508,-0.00028235,-4.776e-05,0.0,0 STARLINK-3904,1 52464U 22049P   22222.58334491 -.00004776  00000-0 -28235-3 0  9994,2 52464  53.2148 166.9475 0002244  61.6268  81.5508 15.08816519  1300,6917.9519999999975,95.439,541.37,538.265,0.0
52464.0,STARLINK-3904,PAYLOAD,2022-08-10 22:00:00,15.08830608,0.0002283,53.215,165.4512,64.6231,90.1125,-0.00050512,-8.317e-05,0.0,0 STARLINK-3904,1 52464U 22049P   22222.91667824 -.00008317  00000-0 -50512-3 0  9998,2 52464  53.2150 165.4512 0002283  64.6231  90.1125 15.08830608 15126,6917.909000000002,95.438,541.3530000000002,538.195,0.0
52464.0,STARLINK-3904,PAYLOAD,2022-08-11 14:00:01,15.08829796,0.0002288,53.2149,162.4585,63.375,114.5198,0.00012229,1.658e-05,0.0,0 STARLINK-3904,1 52464U 22049P   22223.58334491  .00001658  00000-0  12229-3 0  9995,2 52464  53.2149 162.4585 0002288  63.3750 114.5198 15.08829796  1300,6917.9119999999975,95.438,541.359,538.194,0.0
52464.0,STARLINK-3904,PAYLOAD,2022-08-11 22:00:00,15.08851932,0.0002355,53.2151,160.9624,66.0242,123.4522,-0.00060146,-9.851e-05,0.0,0 STARLINK-3904,1 52464U 22049P   22223.91667824 -.00009851  00000-0 -60146-3 0  9997,2 52464  53.2151 160.9624 0002355  66.0242 123.4522 15.08851932 15279,6917.844,95.437,541.3380000000002,538.08,0.0
52464.0,STARLINK-3904,PAYLOAD,2022-08-12 14:00:01,15.08857494,0.0002323,53.2152,157.9694,64.6364,148.0596,0.00043896,6.708e-05,0.0,0 STARLINK-3904,1 52464U 22049P   22224.58334491  .00006708  00000-0  43896-3 0  9991,2 52464  53.2152 157.9694 0002323  64.6364 148.0596 15.08857494  1309,6917.8269999999975,95.436,541.299,538.085,0.0
52464.0,STARLINK-3904,PAYLOAD,2022-08-12 22:00:01,15.08872556,0.0002343999999999,53.2154,156.4733,65.842,158.5286,-0.003184,-0.00050653,0.0,0 STARLINK-3904,1 52464U 22049P   22224.91668981 -.00050653  00000-0 -31840-2 0  9997,2 52464  53.2154 156.4733 0002344  65.8420 158.5286 15.08872556  1306,6917.781,95.435,541.2669999999998,538.024,0.0
52464.0,STARLINK-3904,PAYLOAD,2022-08-13 06:00:02,15.08827264,0.0002379999999999,53.2155,154.9783,59.7303,176.2546,0.0011393,0.00017884,0.0,0 STARLINK-3904,1 52464U 22049P   22225.25002315  .00017884  00000-0  11393-2 0  9996,2 52464  53.2155 154.9783 0002380  59.7303 176.2546 15.08827264 15472,6917.919,95.438,541.431,538.138,0.0
52464.0,STARLINK-3904,PAYLOAD,2022-08-13 14:00:01,15.08816558,0.0002203,53.2157,153.4801,63.2349,184.2822,0.00085007,0.00013258,0.0,0 STARLINK-3904,1 52464U 22049P   22225.58334491  .00013258  00000-0  85007-3 0  9990,2 52464  53.2157 153.4801 0002203  63.2349 184.2822 15.08816558  1300,6917.9519999999975,95.439,541.341,538.293,0.0
52464.0,STARLINK-3904,PAYLOAD,2022-08-13 22:00:00,15.08844124,0.0002281,53.2158,151.9843,65.097,193.9883,-0.0008583,-0.00013924,0.0,0 STARLINK-3904,1 52464U 22049P   22225.91667824 -.00013924  00000-0 -85830-3 0  9992,2 52464  53.2158 151.9843 0002281  65.0970 193.9883 15.08844124  1300,6917.868,95.437,541.311,538.155,0.0
52464.0,STARLINK-3904,PAYLOAD,2022-08-14 14:00:01,15.0883831,0.0002241,53.216,148.991,64.9279,217.3509,0.0014519,0.00022894,0.0,0 STARLINK-3904,1 52464U 22049P   22226.58334491  .00022894  00000-0  14519-2 0  9996,2 52464  53.2160 148.9910 0002241  64.9279 217.3509 15.08838310 15682,6917.886,95.438,541.3009999999998,538.2,0.0
52464.0,STARLINK-3904,PAYLOAD,2022-08-14 22:00:00,15.0886362,0.0002261,53.216,147.4952,65.013,228.864,-0.002892,-0.00046052,0.0,0 STARLINK-3904,1 52464U 22049P   22226.91667824 -.00046052  00000-0 -28920-2 0  9997,2 52464  53.2160 147.4952 0002261  65.0130 228.8640 15.08863620  1301,6917.808000000001,95.436,541.237,538.109,0.0
52464.0,STARLINK-3904,PAYLOAD,2022-08-15 06:00:00,15.08820802,0.0002286,53.2158,146.0,59.7287,245.7516,0.0023006999999999,0.00036499,0.0,0 STARLINK-3904,1 52464U 22049P   22227.25001157  .00036499  00000-0  23007-2 0  9999,2 52464  53.2158 146.0000 0002286  59.7287 245.7516 15.08820802 15789,6917.939,95.439,541.386,538.2230000000002,0.0
52464.0,STARLINK-3904,PAYLOAD,2022-08-15 14:00:01,15.08815289,0.0002117,53.2159,144.5018,64.9707,252.1069,0.00051937,7.982e-05,0.0,0 STARLINK-3904,1 52464U 22049P   22227.58334491  .00007982  00000-0  51937-3 0  9994,2 52464  53.2159 144.5018 0002117  64.9707 252.1069 15.08815289  1301,6917.956,95.439,541.285,538.356,0.0
52464.0,STARLINK-3904,PAYLOAD,2022-08-15 22:00:00,15.08838558,0.0002147,53.216,143.0061,64.6361,264.008,-0.0013141,-0.00021141,0.0,0 STARLINK-3904,1 52464U 22049P   22227.91667824 -.00021141  00000-0 -13141-2 0  9999,2 52464  53.2160 143.0061 0002147  64.6361 264.0080 15.08838558  1300,6917.885,95.438,541.235,538.265,0.0
52464.0,STARLINK-3904,PAYLOAD,2022-08-16 00:00:00,15.08834917,0.0002198999999999,53.2158,142.6326,62.9545,358.587,-0.0011807,-0.00019028,0.0,0 STARLINK-3904,1 52464U 22049P   22228.00001157 -.00019028  00000-0 -11807-2 0  9999,2 52464  53.2158 142.6326 0002199  62.9545 358.5870 15.08834917 15898,6917.896,95.438,541.2819999999998,538.24,0.0
52464.0,STARLINK-3904,PAYLOAD,2022-08-16 14:00:01,15.08815931,0.000208,53.2155,140.0126,67.1261,284.6972,0.0027987,0.00044506,0.0,0 STARLINK-3904,1 52464U 22049P   22228.58334491  .00044506  00000-0  27987-2 0  9995,2 52464  53.2155 140.0126 0002080  67.1261 284.6972 15.08815931  1304,6917.954000000002,95.439,541.258,538.38,0.0
52464.0,STARLINK-3904,PAYLOAD,2022-08-16 22:00:00,15.08861204,0.0002145,53.2156,138.5171,66.3423,297.0629,-0.0014785,-0.00023756,0.0,0 STARLINK-3904,1 52464U 22049P   22228.91667824 -.00023756  00000-0 -14785-2 0  9999,2 52464  53.2156 138.5171 0002145  66.3423 297.0629 15.08861204  1301,6917.816,95.436,541.164,538.197,0.0
52464.0,STARLINK-3904,PAYLOAD,2022-08-17 06:00:02,15.08852019,0.0002145999999999,53.215,137.0213,61.6349,313.4411,-0.00092017,-0.00014908,0.0,0 STARLINK-3904,1 52464U 22049P   22229.25002315 -.00014908  00000-0 -92017-3 0  9999,2 52464  53.2150 137.0213 0002146  61.6349 313.4411 15.08852019 16089,6917.844,95.437,541.193,538.224,0.0
52464.0,STARLINK-3904,PAYLOAD,2022-08-17 14:00:01,15.08886576,0.0002073,53.2154,135.5226,64.5236,322.1877,-0.0049543999999999,-0.00078383,0.0,0 STARLINK-3904,1 52464U 22049P   22229.58334491 -.00078383  00000-0 -49544-2 0  9991,2 52464  53.2154 135.5226 0002073  64.5236 322.1877 15.08886576 16130,6917.738,95.435,541.0369999999998,538.169,0.0
52464.0,STARLINK-3904,PAYLOAD,2022-08-17 16:00:00,15.08853441,0.0002048,53.2154,135.1471,65.5631,54.0668,-0.0023749,-0.00037901,0.0,0 STARLINK-3904,1 52464U 22049P   22229.66667824 -.00037901  00000-0 -23749-2 0  9999,2 52464  53.2154 135.1471 0002048  65.5631  54.0668 15.08853441  1307,6917.839,95.437,541.121,538.288,0.0
52464.0,STARLINK-3904,PAYLOAD,2022-08-18 08:00:01,15.08830545,0.0002024,53.2144,132.1572,57.81800000000001,84.9668,-0.00080781,-0.00013118,0.0,0 STARLINK-3904,1 52464U 22049P   22230.33334491 -.00013118  00000-0 -80781-3 0  9990,2 52464  53.2144 132.1572 0002024  57.8180  84.9668 15.08830545 16243,6917.909000000002,95.438,541.174,538.374,0.0
52464.0,STARLINK-3904,PAYLOAD,2022-08-18 14:00:01,15.08804721,0.0001893,53.2145,131.0337,62.6793,358.8012,0.0031491999999999,0.0005013999999999,0.0,0 STARLINK-3904,1 52464U 22049P   22230.58334491  .00050140  00000-0  31492-2 0  9995,2 52464  53.2145 131.0337 0001893  62.6793 358.8012 15.08804721  1302,6917.988,95.44,541.163,538.544,0.0
52464.0,STARLINK-3904,PAYLOAD,2022-08-18 22:00:00,15.08849762,0.0001964,53.2145,129.5386,60.507,12.5471,-0.0036133,-0.00057353,0.0,0 STARLINK-3904,1 52464U 22049P   22230.91667824 -.00057353  00000-0 -36133-2 0  9993,2 52464  53.2145 129.5386 0001964  60.5070  12.5471 15.08849762  1309,6917.851,95.437,541.0740000000002,538.357,0.0
52464.0,STARLINK-3904,PAYLOAD,2022-08-19 06:00:00,15.08815034,0.0001965,53.2142,128.0426,55.5379,29.097,0.0013561,0.00021346,0.0,0 STARLINK-3904,1 52464U 22049P   22231.25001157  .00021346  00000-0  13561-2 0  9993,2 52464  53.2142 128.0426 0001965  55.5379  29.0970 15.08815034 16388,6917.956999999999,95.439,541.181,538.462,0.0
